RSP-03                  
1 65732U 98067XL  26039.66236070  .00844645  35986-3  13863-2 0  9991
2 65732  51.6148 196.1853 0007276 299.9440  60.0848 16.02581073 22320
YOTSUBA-KULOVER         
1 65941U 98067XN  26039.71294740  .00117812  00000+0  91543-3 0  9993
2 65941  51.6242 206.4026 0004047 255.5086 104.5463 15.70895294 18937
BOTAN                   
1 65942U 98067XP  26039.46178240  .00342562  00000+0  14175-2 0  9999
2 65942  51.6179 203.9271 0006222 277.7015  82.3282 15.84336701 18947
E-KAGAKU-1              
1 65943U 98067XQ  26039.71374767  .00113215  00000+0  88438-3 0  9995
2 65943  51.6277 206.4201 0003478 270.0680  89.9919 15.70789022 18934
HRC MONOBLOCK CAMERA    
1 66052U 98067XR  26039.88513144  .00047203  00000+0  59274-3 0  9998
2 66052  51.6273 210.5656 0001007 357.0493   3.0493 15.59224622 17891
HTV-X1                  
1 66174U 25241A   26039.85811588  .00009323  00000+0  18006-3 0  9996
2 66174  51.6313 214.8819 0011069  77.9921 282.2307 15.48490499   513
SZ-21 MODULE            
1 66515U 25246C   26039.31779128  .00036164  00000+0  34090-3 0  9998
2 66515  41.4766  23.8541 0002849 283.8241  76.2283 15.66324855 13464
SHENZHOU-22             
1 66645U 25272A   26039.26676819  .00021315  00000+0  26604-3 0  9992
2 66645  41.4686  27.0109 0004988  28.6322 331.4790 15.59347217267645
SOYUZ-MS 28             
1 66664U 25275A   26039.85811588  .00009323  00000+0  18006-3 0  9997
2 66664  51.6313 214.8819 0011069  77.9921 282.2307 15.48490499  1282
DUPLEX                  
1 66906U 98067XS  26039.73420522  .00031235  00000+0  47621-3 0  9998
2 66906  51.6293 214.0577 0001472  73.9350 286.1802 15.54186590 10622
ISS OBJECT XT           
1 66907U 98067XT  26039.72205673  .00093312  00000+0  10574-2 0  9996
2 66907  51.6269 212.4746 0001843 230.6031 129.4800 15.61617476 10645
ISS OBJECT XU           
1 66908U 98067XU  26039.72147712  .00093221  00000+0  10552-2 0  9991
2 66908  51.6265 212.4680 0001717 232.9156 127.1681 15.61646519 10644
